FLOCK 4BE-14            
1 60517U 24149BB  26178.49132182  .00017547  00000+0  42271-3 0  9995
2 60517  97.3701 262.3483 0003606 239.5897 120.4993 15.41313814103917
FLOCK 4BE-1             
1 60518U 24149BC  26178.49647273  .00018267  00000+0  41693-3 0  9995
2 60518  97.3785 263.6681 0003412 237.9921 122.0995 15.42930845103964
FLOCK 4BE-28            
1 60519U 24149BD  26178.23619964  .00020678  00000+0  43611-3 0  9995
2 60519  97.3755 264.1600 0003464 233.5902 126.5028 15.45251112103992
IPERDRONE.0             
1 60520U 24149BE  26178.52147442  .00079430  00000+0  70850-3 0  9991
2 60520  97.3777 272.2536 0004148 201.3933 158.7156 15.68180051104531
TRANSPORTER-11 OBJECT BF
1 60521U 24149BF  26178.21687219  .00358419  49703-4  11932-2 0  9999
2 60521  97.3750 274.9696 0006968 227.8213 132.2469 15.90205666104679
CONNECTA IOT-2          
1 60522U 24149BG  26178.48843566  .00004959  00000+0  20725-3 0  9998
2 60522  97.3843 256.4779 0004843 292.6498  67.4227 15.24058096103462
CONNECTA IOT-4          
1 60524U 24149BJ  26178.19886028  .00022571  00000+0  52165-3 0  9991
2 60524  97.3804 262.6889 0004533 239.5241 120.5559 15.42507498103873
ORESAT0.5               
1 60525U 24149BK  26178.47927719  .00021273  00000+0  44535-3 0  9996
2 60525  97.3726 264.6386 0004698 226.2840 133.8020 15.45458408104062
DEIMOS                  
1 60526U 24149BL  26178.19332843  .00020308  00000+0  43830-3 0  9999
2 60526  97.3790 264.4836 0004528 235.5802 124.5019 15.44568701103998
CUAVA-2                 
1 60527U 24149BM  26178.17942162  .00013355  00000+0  37881-3 0  9992
2 60527  97.3733 259.7163 0005415 249.1595 110.9069 15.36338231103709
ERNST                   
1 60528U 24149BN  26178.50569352  .00013945  00000+0  35747-3 0  9990
2 60528  97.3814 262.3036 0004644 248.6889 111.3861 15.39468794103865
TORO                    
1 60530U 24149BQ  26178.47039780  .00001884  00000+0  17109-3 0  9997
2 60530  97.6782 252.9464 0001135  93.8232 266.3119 14.96455341101499
HYPSO-2                 
1 60531U 24149BR  26178.48194046  .00003076  00000+0  25981-3 0  9998
2 60531  97.6813 254.5914 0001047 125.0175 235.1146 14.98835709101596
LEMU NGE                
1 60532U 24149BS  26178.49276963  .00002868  00000+0  26751-3 0  9993
2 60532  97.6845 253.2438 0001650  61.1615 298.9771 14.94994970101490
LEMUR-2-STELLA          
1 60533U 24149BT  26178.53875535  .00010426  00000+0  61036-3 0  9993
2 60533  97.6742 261.0396 0001373  99.0541 261.0845 15.12019407102068
SATELIOT_2              
1 60534U 24149BU  26178.45796124  .00001519  00000+0  13908-3 0  9999
2 60534  97.6829 253.2270 0001708  84.4415 275.7001 14.96395915101505
NIGHTJAR                
1 60535U 24149BV  26178.47182191  .00003223  00000+0  27036-3 0  9996
2 60535  97.6833 255.0343 0000946 114.3842 245.7479 14.99066992144418
LEMUR-2-MARHISYAM       
1 60536U 24149BW  26178.19185744  .00011290  00000+0  67100-3 0  9992
2 60536  97.6883 261.1503 0003184 100.0512 260.1077 15.11447359101999
SATELIOT_4              
1 60537U 24149BX  26178.46670748  .00001721  00000+0  15571-3 0  9999
2 60537  97.6732 252.7559 0002238  36.2681 323.8692 14.96698204101513
PICO-02A021             
1 60538U 24149BY  26178.48354101  .00005445  00000+0  40532-3 0  9996
2 60538  97.6769 257.2269 0004191   4.2278 355.8982 15.03351360101288
ICEYE-X43               
1 60539U 24149BZ  26178.17069281  .00004293  00000+0  35254-3 0  9990
2 60539  97.6818 254.9998 0008030  55.7964 304.4020 14.99689089101612
HAWK-10A                
1 60540U 24149CA  26178.46649376  .00001351  00000+0  12381-3 0  9991
2 60540  97.6890 254.2014 0004245  52.5276 307.6331 14.96541335101529
UMBRA-09                
1 60541U 24149CB  26178.48126154  .00014087  00000+0  68879-3 0  9991
2 60541  97.6978 265.8640 0001135 239.6461 120.4660 15.18337158102280
QPS-SAR-8 (AMATERU-IV)  
1 60542U 24149CC  26178.17217764  .00006718  00000+0  48745-3 0  9998
2 60542  97.6664 257.2377 0004159  85.3484 274.8216 15.04227149101772
ARCTIC WEATHER SATELLITE
1 60543U 24149CD  26178.42992250  .00000784  00000+0  87318-4 0  9994
2 60543  97.6799 248.6027 0003656  84.9068 275.2567 14.89797604100821
CAPELLA-15 (ACADIA-5)   
1 60544U 24149CE  26178.51377760  .00003395  00000+0  33706-3 0  9990
2 60544  97.6776 251.1591 0004215  46.6359 313.5211 14.92384023101398
HAWK-10B                
1 60545U 24149CF  26178.46635169  .00001415  00000+0  12948-3 0  9991
2 60545  97.6809 253.5460 0006393  65.6390 294.5498 14.96540501101521
ICEYE-X39               
1 60546U 24149CG  26178.48399845  .00003591  00000+0  29374-3 0  9990
2 60546  97.6765 255.3671 0006396  92.3160 267.8796 14.99955559101667
UMBRA-10                
1 60547U 24149CH  26178.48081914  .00017516  00000+0  85507-3 0  9998
2 60547  97.6982 265.8923 0000438 164.9035 195.2211 15.18344350102292
ICEYE-X33               
1 60548U 24149CJ  26178.50267497  .00004682  00000+0  37208-3 0  9999
2 60548  97.7314 257.5869 0002092  73.3685 286.7768 15.00932241101758
