OBJECT_NAME,OBJECT_ID,EPOCH,MEAN_MOTION,ECCENTRICITY,INCLINATION,RA_OF_ASC_NODE,ARG_OF_PERICENTER,MEAN_ANOMALY,EPHEMERIS_TYPE,CLASSIFICATION_TYPE,NORAD_CAT_ID,ELEMENT_SET_NO,REV_AT_EPOCH,BSTAR,MEAN_MOTION_DOT,MEAN_MOTION_DDOT
FLOCK 4BE-14,2024-149BB,2026-06-27T11:47:30.205248,15.41313814,.0003606,97.3701,262.3483,239.5897,120.4993,0,U,60517,999,10391,.42271E-3,.17547E-3,0
FLOCK 4BE-1,2024-149BC,2026-06-27T11:54:55.243872,15.42930845,.0003412,97.3785,263.6681,237.9921,122.0995,0,U,60518,999,10396,.41693E-3,.18267E-3,0
FLOCK 4BE-28,2024-149BD,2026-06-27T05:40:07.648896,15.45251112,.0003464,97.3755,264.1600,233.5902,126.5028,0,U,60519,999,10399,.43611E-3,.20678E-3,0
IPERDRONE.0,2024-149BE,2026-06-27T12:30:55.389888,15.68180051,.0004148,97.3777,272.2536,201.3933,158.7156,0,U,60520,999,10453,.7085E-3,.7943E-3,0
TRANSPORTER-11 OBJECT BF,2024-149BF,2026-06-27T05:12:17.757216,15.90205666,.00069682,97.3750,274.9696,227.8213,132.2469,0,U,60521,999,10467,.11931825E-2,.358419E-2,.49703301E-4
CONNECTA IOT-2,2024-149BG,2026-06-27T11:43:20.841024,15.24058096,.0004843,97.3843,256.4779,292.6498,67.4227,0,U,60522,999,10346,.20725E-3,.4959E-4,0
CONNECTA IOT-4,2024-149BJ,2026-06-27T04:46:21.528192,15.42507498,.0004533,97.3804,262.6889,239.5241,120.5559,0,U,60524,999,10387,.52164914E-3,.22571E-3,0
ORESAT0.5,2024-149BK,2026-06-27T11:30:09.549216,15.45458408,.0004698,97.3726,264.6386,226.2840,133.8020,0,U,60525,999,10406,.44535E-3,.21273E-3,0
DEIMOS,2024-149BL,2026-06-27T04:38:23.576352,15.44568701,.00045287,97.3790,264.4836,235.5802,124.5019,0,U,60526,999,10399,.43830176E-3,.20308E-3,0
CUAVA-2,2024-149BM,2026-06-27T04:18:22.027968,15.36338231,.00054159,97.3733,259.7163,249.1595,110.9069,0,U,60527,999,10370,.37881348E-3,.13355E-3,0
ERNST,2024-149BN,2026-06-27T12:08:11.920128,15.39468794,.0004644,97.3814,262.3036,248.6889,111.3861,0,U,60528,999,10386,.35747E-3,.13945E-3,0
TORO,2024-149BQ,2026-06-27T11:17:22.369920,14.96455341,.0001135,97.6782,252.9464,93.8232,266.3119,0,U,60530,999,10149,.17109E-3,.1884E-4,0
HYPSO-2,2024-149BR,2026-06-27T11:33:59.655744,14.98835709,.0001047,97.6813,254.5914,125.0175,235.1146,0,U,60531,999,10159,.25981E-3,.3076E-4,0
LEMU NGE,2024-149BS,2026-06-27T11:49:35.296032,14.94994970,.000165,97.6845,253.2438,61.1615,298.9771,0,U,60532,999,10149,.26751E-3,.2868E-4,0
LEMUR-2-STELLA,2024-149BT,2026-06-27T12:55:48.462240,15.12019407,.0001373,97.6742,261.0396,99.0541,261.0845,0,U,60533,999,10206,.61036E-3,.10426E-3,0
SATELIOT_2,2024-149BU,2026-06-27T10:59:27.851136,14.96395915,.0001708,97.6829,253.2270,84.4415,275.7001,0,U,60534,999,10150,.13908E-3,.1519E-4,0
NIGHTJAR,2024-149BV,2026-06-27T11:19:25.413024,14.99066992,.0000946,97.6833,255.0343,114.3842,245.7479,0,U,60535,999,14441,.27036E-3,.3223E-4,0
LEMUR-2-MARHISYAM,2024-149BW,2026-06-27T04:36:16.482816,15.11447359,.0003184,97.6883,261.1503,100.0512,260.1077,0,U,60536,999,10199,.67099748E-3,.1129E-3,0
SATELIOT_4,2024-149BX,2026-06-27T11:12:03.526272,14.96698204,.0002238,97.6732,252.7559,36.2681,323.8692,0,U,60537,999,10151,.15571E-3,.1721E-4,0
PICO-02A021,2024-149BY,2026-06-27T11:36:17.943264,15.03351360,.0004191,97.6769,257.2269,4.2278,355.8982,0,U,60538,999,10128,.40532E-3,.5445E-4,0
ICEYE-X43,2024-149BZ,2026-06-27T04:05:47.858784,14.99689089,.00080308,97.6818,254.9998,55.7964,304.4020,0,U,60539,999,10161,.35253605E-3,.4293E-4,0
HAWK-10A,2024-149CA,2026-06-27T11:11:45.060864,14.96541335,.0004245,97.6890,254.2014,52.5276,307.6331,0,U,60540,999,10152,.12381E-3,.1351E-4,0
UMBRA-09,2024-149CB,2026-06-27T11:33:00.997056,15.18337158,.0001135,97.6978,265.8640,239.6461,120.4660,0,U,60541,999,10228,.68879E-3,.14087E-3,0
QPS-SAR-8 (AMATERU-IV),2024-149CC,2026-06-27T04:07:56.148096,15.04227149,.00041591,97.6664,257.2377,85.3484,274.8216,0,U,60542,999,10177,.48744744E-3,.6718E-4,0
ARCTIC WEATHER SATELLITE,2024-149CD,2026-06-27T10:19:05.304000,14.89797604,.0003656,97.6799,248.6027,84.9068,275.2567,0,U,60543,999,10082,.87318E-4,.784E-5,0
CAPELLA-15 (ACADIA-5),2024-149CE,2026-06-27T12:19:50.384640,14.92384023,.0004215,97.6776,251.1591,46.6359,313.5211,0,U,60544,999,10139,.33706E-3,.3395E-4,0
HAWK-10B,2024-149CF,2026-06-27T11:11:32.786016,14.96540501,.0006393,97.6809,253.5460,65.6390,294.5498,0,U,60545,999,10152,.12948E-3,.1415E-4,0
ICEYE-X39,2024-149CG,2026-06-27T11:36:57.466080,14.99955559,.0006396,97.6765,255.3671,92.3160,267.8796,0,U,60546,999,10166,.29374E-3,.3591E-4,0
UMBRA-10,2024-149CH,2026-06-27T11:32:22.773696,15.18344350,.0000438,97.6982,265.8923,164.9035,195.2211,0,U,60547,999,10229,.85507E-3,.17516E-3,0
ICEYE-X33,2024-149CJ,2026-06-27T12:03:51.117408,15.00932241,.0002092,97.7314,257.5869,73.3685,286.7768,0,U,60548,999,10175,.37208E-3,.4682E-4,0
